UM5-RIBAT               
1 60554U 24149CQ  26068.79561721  .00004725  00000+0  37993-3 0  9991
2 60554  97.6776 147.9138 0003272  87.0399 273.1199 15.00468196 85282
STARLINK-34697          
1 64791U 25150B   26068.52016311  .00002868  00000+0  24806-3 0  9997
2 64791  70.0018 134.7957 0003641 269.2497  90.8245 14.98326239 36491
